{
"type": "FeatureCollection",
"name": "unitedStates_DiscountCharity",
"crs": { "type": "name", "properties": { "name": "urn:ogc:def:crs:OGC:1.3:CRS84" } },
"features": [
{ "type": "Feature", "properties": { "gid": 4172246870, "addr:housenumber": null, "brand": null, "name": "Lil' Dudes And Divas", "office": null, "operator": null, "ref": null, "shop": "second_hand" }, "geometry": { "type": "Point", "coordinates": [ -122.4036475, 45.586383800401734 ] } },
{ "type": "Feature", "properties": { "gid": 4211437181, "addr:housenumber": null, "brand": "Dollar Tree", "name": "Dollar Tree", "office": null, "operator": null, "ref": null, "shop": "variety_store" }, "geometry": { "type": "Point", "coordinates": [ -122.371236700000011, 45.58466020040197 ] } },
{ "type": "Feature", "properties": { "gid": 4443270211, "addr:housenumber": null, "brand": "Dollar Tree", "name": "Dollar Tree", "office": null, "operator": null, "ref": null, "shop": "variety_store" }, "geometry": { "type": "Point", "coordinates": [ -117.180584, 46.713778200218172 ] } },
{ "type": "Feature", "properties": { "gid": 10731886345, "addr:housenumber": null, "brand": "Dollar Tree", "name": "Dollar Tree", "office": null, "operator": null, "ref": null, "shop": "variety_store" }, "geometry": { "type": "Point", "coordinates": [ -117.565511499999985, 47.50306240005294 ] } },
{ "type": "Feature", "properties": { "gid": 10603195448, "addr:housenumber": null, "brand": null, "name": null, "office": null, "operator": null, "ref": null, "shop": "charity" }, "geometry": { "type": "Point", "coordinates": [ -117.272481599999978, 47.657499700017901 ] } },
{ "type": "Feature", "properties": { "gid": 9289179886, "addr:housenumber": null, "brand": null, "name": "HRC Thrift Store", "office": null, "operator": null, "ref": null, "shop": "charity" }, "geometry": { "type": "Point", "coordinates": [ -117.2107141, 47.657515600017902 ] } },
{ "type": "Feature", "properties": { "gid": 4735704214, "addr:housenumber": null, "brand": "Goodwill", "name": "Goodwill", "office": null, "operator": null, "ref": null, "shop": "charity" }, "geometry": { "type": "Point", "coordinates": [ -117.436061199999969, 47.678265100013128 ] } },
{ "type": "Feature", "properties": { "gid": 4109155605, "addr:housenumber": null, "brand": "Dollar Tree", "name": "Dollar Tree", "office": null, "operator": null, "ref": null, "shop": "variety_store" }, "geometry": { "type": "Point", "coordinates": [ -117.330034, 47.658376400017687 ] } },
{ "type": "Feature", "properties": { "gid": 4882782138, "addr:housenumber": null, "brand": null, "name": "Veterans Thrift Store", "office": null, "operator": null, "ref": null, "shop": "charity" }, "geometry": { "type": "Point", "coordinates": [ -117.4773404, 47.700529100007998 ] } },
{ "type": "Feature", "properties": { "gid": 4272746162, "addr:housenumber": null, "brand": null, "name": "Hank's Secondhand and Collectibles", "office": null, "operator": null, "ref": null, "shop": "second_hand" }, "geometry": { "type": "Point", "coordinates": [ -118.7378971, 48.645608799780184 ] } },
{ "type": "Feature", "properties": { "gid": 2329682487, "addr:housenumber": "1316", "brand": "Dollar Tree", "name": "Dollar Tree", "office": null, "operator": null, "ref": null, "shop": "variety_store" }, "geometry": { "type": "Point", "coordinates": [ -119.118974, 46.239731500303726 ] } },
{ "type": "Feature", "properties": { "gid": 6336569179, "addr:housenumber": null, "brand": null, "name": "World Wide Missions", "office": null, "operator": null, "ref": null, "shop": "second_hand" }, "geometry": { "type": "Point", "coordinates": [ -119.118403, 46.238845400303894 ] } },
{ "type": "Feature", "properties": { "gid": 10152787037, "addr:housenumber": null, "brand": "Dollar Tree", "name": "Dollar Tree", "office": null, "operator": null, "ref": null, "shop": "variety_store" }, "geometry": { "type": "Point", "coordinates": [ -119.162321799999972, 46.208482400308966 ] } },
{ "type": "Feature", "properties": { "gid": 8041125251, "addr:housenumber": null, "brand": "Saint Vincent de Paul Thrift Store", "name": "Saint Vincent de Paul Thrift Store", "office": null, "operator": null, "ref": null, "shop": "charity" }, "geometry": { "type": "Point", "coordinates": [ -119.226501, 46.216173500307676 ] } },
{ "type": "Feature", "properties": { "gid": 2701687153, "addr:housenumber": null, "brand": "Dollar Tree", "name": "Dollar Tree", "office": null, "operator": null, "ref": null, "shop": "variety_store" }, "geometry": { "type": "Point", "coordinates": [ -119.9843484, 46.318850400290259 ] } },
{ "type": "Feature", "properties": { "gid": 5047018223, "addr:housenumber": null, "brand": "Goodwill", "name": "Goodwill", "office": null, "operator": "Goodwill Industries of the Columbia", "ref": null, "shop": "charity" }, "geometry": { "type": "Point", "coordinates": [ -119.982756199999969, 46.317364600290517 ] } },
{ "type": "Feature", "properties": { "gid": 7929545350, "addr:housenumber": null, "brand": null, "name": "Veteran's Thrift Store", "office": null, "operator": null, "ref": null, "shop": "charity" }, "geometry": { "type": "Point", "coordinates": [ -120.32129350000001, 47.439101800067263 ] } },
{ "type": "Feature", "properties": { "gid": 7929545340, "addr:housenumber": null, "brand": "Dollar Tree", "name": "Dollar Tree", "office": null, "operator": null, "ref": null, "shop": "variety_store" }, "geometry": { "type": "Point", "coordinates": [ -120.3191565, 47.436667100067794 ] } },
{ "type": "Feature", "properties": { "gid": 9467683105, "addr:housenumber": "405", "brand": "Dollar Tree", "name": "Dollar Tree", "office": null, "operator": null, "ref": null, "shop": "variety_store" }, "geometry": { "type": "Point", "coordinates": [ -120.524145, 46.659614600228508 ] } },
{ "type": "Feature", "properties": { "gid": 5196743522, "addr:housenumber": null, "brand": null, "name": "Enumclaw Recyclers", "office": null, "operator": null, "ref": null, "shop": "variety_store" }, "geometry": { "type": "Point", "coordinates": [ -121.984029599999985, 47.210068400117216 ] } },
{ "type": "Feature", "properties": { "gid": 5997159666, "addr:housenumber": null, "brand": "Goodwill", "name": "Goodwill", "office": null, "operator": null, "ref": null, "shop": "charity" }, "geometry": { "type": "Point", "coordinates": [ -122.1479487, 47.16617730012657 ] } },
{ "type": "Feature", "properties": { "gid": 4909973926, "addr:housenumber": null, "brand": null, "name": "Dollar Plus", "office": null, "operator": null, "ref": null, "shop": "variety_store" }, "geometry": { "type": "Point", "coordinates": [ -122.2273059, 47.273338400103619 ] } },
{ "type": "Feature", "properties": { "gid": 8268965552, "addr:housenumber": null, "brand": null, "name": "Grannie's Attic Thrift Store", "office": null, "operator": null, "ref": null, "shop": "charity" }, "geometry": { "type": "Point", "coordinates": [ -122.280545599999982, 47.191500200121205 ] } },
{ "type": "Feature", "properties": { "gid": 5042020925, "addr:housenumber": null, "brand": "Dollar Tree", "name": "Dollar Tree", "office": null, "operator": null, "ref": null, "shop": "variety_store" }, "geometry": { "type": "Point", "coordinates": [ -122.24610340000001, 47.379240900080511 ] } },
{ "type": "Feature", "properties": { "gid": 3620548584, "addr:housenumber": null, "brand": "Goodwill", "name": "Goodwill", "office": null, "operator": "Evergreen Goodwill", "ref": null, "shop": "charity" }, "geometry": { "type": "Point", "coordinates": [ -122.204288, 47.370404500082437 ] } },
{ "type": "Feature", "properties": { "gid": 4632359292, "addr:housenumber": null, "brand": "Dollar Tree", "name": "Dollar Tree", "office": null, "operator": null, "ref": null, "shop": "variety_store" }, "geometry": { "type": "Point", "coordinates": [ -122.1993138, 47.37198000008209 ] } },
{ "type": "Feature", "properties": { "gid": 3649757581, "addr:housenumber": "20618", "brand": "Dollar Tree", "name": "Dollar Tree", "office": null, "operator": null, "ref": null, "shop": "variety_store" }, "geometry": { "type": "Point", "coordinates": [ -122.1955335, 47.416889100072176 ] } },
{ "type": "Feature", "properties": { "gid": 3636374912, "addr:housenumber": "23313", "brand": null, "name": "Des Moines Goodwill", "office": null, "operator": null, "ref": null, "shop": "second_hand" }, "geometry": { "type": "Point", "coordinates": [ -122.2964776, 47.392500000077561 ] } },
{ "type": "Feature", "properties": { "gid": 6865324086, "addr:housenumber": null, "brand": "Dollar Tree", "name": "Dollar Tree", "office": null, "operator": null, "ref": null, "shop": "variety_store" }, "geometry": { "type": "Point", "coordinates": [ -122.2948359, 47.391529500077787 ] } },
{ "type": "Feature", "properties": { "gid": 4320499651, "addr:housenumber": "1185", "brand": "Habitat for Humanity ReStore", "name": "Habitat for Humanity ReStore", "office": null, "operator": null, "ref": null, "shop": "charity" }, "geometry": { "type": "Point", "coordinates": [ -122.255202, 47.444020300066171 ] } },
{ "type": "Feature", "properties": { "gid": 4320499650, "addr:housenumber": null, "brand": "Goodwill", "name": "Goodwill", "office": null, "operator": null, "ref": null, "shop": "charity" }, "geometry": { "type": "Point", "coordinates": [ -122.2540033, 47.443499600066275 ] } },
{ "type": "Feature", "properties": { "gid": 2319215159, "addr:housenumber": "1222", "brand": "Dollar Tree", "name": "Dollar Tree", "office": null, "operator": null, "ref": null, "shop": "variety_store" }, "geometry": { "type": "Point", "coordinates": [ -122.200745399999988, 47.48427040005717 ] } },
{ "type": "Feature", "properties": { "gid": 2446638591, "addr:housenumber": "9274", "brand": null, "name": "Re. Evolucion", "office": null, "operator": null, "ref": null, "shop": "second_hand" }, "geometry": { "type": "Point", "coordinates": [ -122.261425499999973, 47.51947910004926 ] } },
{ "type": "Feature", "properties": { "gid": 3608292093, "addr:housenumber": null, "brand": null, "name": "Asiana Square Community Thrift Store", "office": null, "operator": null, "ref": null, "shop": "second_hand" }, "geometry": { "type": "Point", "coordinates": [ -122.3533383, 47.514616400050372 ] } },
{ "type": "Feature", "properties": { "gid": 3608291893, "addr:housenumber": "10014", "brand": "Dollar Tree", "name": "Dollar Tree", "office": null, "operator": null, "ref": null, "shop": "variety_store" }, "geometry": { "type": "Point", "coordinates": [ -122.353612, 47.513268500050657 ] } },
{ "type": "Feature", "properties": { "gid": 5560912707, "addr:housenumber": "1031", "brand": "Goodwill", "name": "Goodwill", "office": null, "operator": null, "ref": null, "shop": "charity" }, "geometry": { "type": "Point", "coordinates": [ -122.348394, 47.487840900056376 ] } },
{ "type": "Feature", "properties": { "gid": 3798857386, "addr:housenumber": "13445", "brand": "Saint Vincent de Paul Thrift Store", "name": "Saint Vincent de Paul Thrift Store", "office": null, "operator": "St Vincent de Paul", "ref": null, "shop": "charity" }, "geometry": { "type": "Point", "coordinates": [ -122.3342728, 47.481548200057773 ] } },
{ "type": "Feature", "properties": { "gid": 5583694747, "addr:housenumber": "218", "brand": null, "name": "Frenzi", "office": null, "operator": null, "ref": null, "shop": "second_hand" }, "geometry": { "type": "Point", "coordinates": [ -122.3375575, 47.466182700061232 ] } },
{ "type": "Feature", "properties": { "gid": 2434539303, "addr:housenumber": "1400", "brand": "Goodwill", "name": "Goodwill", "office": null, "operator": null, "ref": null, "shop": "charity" }, "geometry": { "type": "Point", "coordinates": [ -122.314297, 47.596881700031751 ] } },
{ "type": "Feature", "properties": { "gid": 9224006960, "addr:housenumber": null, "brand": null, "name": "Higo Variety Store", "office": null, "operator": null, "ref": null, "shop": "variety_store" }, "geometry": { "type": "Point", "coordinates": [ -122.326086699999976, 47.599346100031184 ] } },
{ "type": "Feature", "properties": { "gid": 1934504437, "addr:housenumber": "115", "brand": "Goodwill", "name": "Goodwill", "office": null, "operator": null, "ref": null, "shop": "charity" }, "geometry": { "type": "Point", "coordinates": [ -122.324211, 47.619004900026702 ] } },
{ "type": "Feature", "properties": { "gid": 2399978718, "addr:housenumber": "411", "brand": null, "name": "Goodwill South Lake Union", "office": null, "operator": null, "ref": null, "shop": "variety_store" }, "geometry": { "type": "Point", "coordinates": [ -122.33867170000002, 47.622378500025938 ] } },
{ "type": "Feature", "properties": { "gid": 2138396710, "addr:housenumber": "5221", "brand": null, "name": "Simple & Just", "office": null, "operator": null, "ref": null, "shop": "second_hand" }, "geometry": { "type": "Point", "coordinates": [ -122.3828685, 47.665909300015976 ] } },
{ "type": "Feature", "properties": { "gid": 2463139779, "addr:housenumber": "7616", "brand": null, "name": "The Purple Store", "office": null, "operator": null, "ref": null, "shop": "variety_store" }, "geometry": { "type": "Point", "coordinates": [ -122.344262700000016, 47.68457750001167 ] } },
{ "type": "Feature", "properties": { "gid": 2463140090, "addr:housenumber": "7816", "brand": "Dollar Tree", "name": "Dollar Tree", "office": null, "operator": null, "ref": null, "shop": "variety_store" }, "geometry": { "type": "Point", "coordinates": [ -122.344249099999985, 47.686045200011343 ] } },
{ "type": "Feature", "properties": { "gid": 4904750931, "addr:housenumber": "6411", "brand": "Daiso", "name": "Daiso Japan", "office": null, "operator": null, "ref": null, "shop": "variety_store" }, "geometry": { "type": "Point", "coordinates": [ -122.316656, 47.675502000013765 ] } },
{ "type": "Feature", "properties": { "gid": 9480333545, "addr:housenumber": null, "brand": null, "name": "The Mecca", "office": null, "operator": null, "ref": null, "shop": "second_hand" }, "geometry": { "type": "Point", "coordinates": [ -122.203242099999969, 47.615535500027491 ] } },
{ "type": "Feature", "properties": { "gid": 5719111265, "addr:housenumber": null, "brand": null, "name": "Asian Star", "office": null, "operator": null, "ref": null, "shop": "variety_store" }, "geometry": { "type": "Point", "coordinates": [ -122.2829614, 47.539294800044793 ] } },
{ "type": "Feature", "properties": { "gid": 4789555204, "addr:housenumber": "7330", "brand": "Daiso", "name": "Daiso Japan", "office": null, "operator": null, "ref": null, "shop": "variety_store" }, "geometry": { "type": "Point", "coordinates": [ -122.120934, 47.670405900014934 ] } },
{ "type": "Feature", "properties": { "gid": 1241079929, "addr:housenumber": null, "brand": null, "name": "Super Supplements", "office": null, "operator": null, "ref": null, "shop": "variety_store" }, "geometry": { "type": "Point", "coordinates": [ -122.100449599999962, 47.66695170001573 ] } },
{ "type": "Feature", "properties": { "gid": 5484699949, "addr:housenumber": "14840", "brand": null, "name": "Discovery Shop", "office": null, "operator": "American Cancer Society", "ref": null, "shop": "second_hand" }, "geometry": { "type": "Point", "coordinates": [ -122.1419893, 47.632586400023605 ] } },
{ "type": "Feature", "properties": { "gid": 6212340644, "addr:housenumber": "825", "brand": "Dollar Tree", "name": "Dollar Tree", "office": null, "operator": null, "ref": null, "shop": "variety_store" }, "geometry": { "type": "Point", "coordinates": [ -122.096755, 47.922103299956184 ] } },
{ "type": "Feature", "properties": { "gid": 6331395980, "addr:housenumber": null, "brand": "Dollar Tree", "name": "Dollar Tree", "office": null, "operator": null, "ref": null, "shop": "variety_store" }, "geometry": { "type": "Point", "coordinates": [ -122.240901899999983, 47.880917199965936 ] } },
{ "type": "Feature", "properties": { "gid": 10196223494, "addr:housenumber": null, "brand": "Dollar Tree", "name": "Dollar Tree", "office": null, "operator": null, "ref": null, "shop": "variety_store" }, "geometry": { "type": "Point", "coordinates": [ -122.297124600000018, 47.840296599975488 ] } },
{ "type": "Feature", "properties": { "gid": 2084051292, "addr:housenumber": null, "brand": "Saint Vincent de Paul Thrift Store", "name": "Saint Vincent de Paul Thrift Store", "office": null, "operator": null, "ref": null, "shop": "charity" }, "geometry": { "type": "Point", "coordinates": [ -122.243477, 47.758174999994651 ] } },
{ "type": "Feature", "properties": { "gid": 3977303404, "addr:housenumber": null, "brand": "Dollar Tree", "name": "Dollar Tree", "office": null, "operator": null, "ref": null, "shop": "variety_store" }, "geometry": { "type": "Point", "coordinates": [ -122.3432431, 47.784666299988494 ] } },
{ "type": "Feature", "properties": { "gid": 3192451381, "addr:housenumber": null, "brand": "The Salvation Army", "name": "The Salvation Army", "office": null, "operator": null, "ref": null, "shop": "charity" }, "geometry": { "type": "Point", "coordinates": [ -122.349942, 47.741923799998425 ] } },
{ "type": "Feature", "properties": { "gid": 6988524486, "addr:housenumber": null, "brand": "Dollar Tree", "name": "Dollar Tree", "office": null, "operator": null, "ref": null, "shop": "variety_store" }, "geometry": { "type": "Point", "coordinates": [ -122.214367300000021, 47.952002699949119 ] } },
{ "type": "Feature", "properties": { "gid": 3061700141, "addr:housenumber": null, "brand": "Goodwill", "name": "Goodwill", "office": null, "operator": null, "ref": null, "shop": "charity" }, "geometry": { "type": "Point", "coordinates": [ -122.173215, 48.080356599918453 ] } },
{ "type": "Feature", "properties": { "gid": 2791498772, "addr:housenumber": null, "brand": null, "name": "Haller City Thrift", "office": null, "operator": null, "ref": null, "shop": "second_hand" }, "geometry": { "type": "Point", "coordinates": [ -122.1263251, 48.193143999891241 ] } },
{ "type": "Feature", "properties": { "gid": 10605401756, "addr:housenumber": "301", "brand": null, "name": "Sassafras Vintage & Gifts", "office": null, "operator": null, "ref": null, "shop": "variety_store" }, "geometry": { "type": "Point", "coordinates": [ -122.1262746, 48.194961499890802 ] } },
{ "type": "Feature", "properties": { "gid": 1219885144, "addr:housenumber": "219", "brand": null, "name": "Community Cupboard", "office": "company", "operator": null, "ref": null, "shop": "charity" }, "geometry": { "type": "Point", "coordinates": [ -120.6540159, 47.598333500031423 ] } },
{ "type": "Feature", "properties": { "gid": 1219885106, "addr:housenumber": "211", "brand": null, "name": "Das Thrift Haus", "office": null, "operator": null, "ref": null, "shop": "second_hand" }, "geometry": { "type": "Point", "coordinates": [ -120.6544248, 47.598675300031331 ] } },
{ "type": "Feature", "properties": { "gid": 9432170050, "addr:housenumber": "2103", "brand": null, "name": "Cascade New and Used", "office": null, "operator": null, "ref": null, "shop": "second_hand" }, "geometry": { "type": "Point", "coordinates": [ -122.335769099999979, 48.405777899839343 ] } },
{ "type": "Feature", "properties": { "gid": 2196982236, "addr:housenumber": "1022", "brand": null, "name": "Habitat for Humanity", "office": null, "operator": null, "ref": null, "shop": "second_hand" }, "geometry": { "type": "Point", "coordinates": [ -122.33475439999998, 48.430325099833318 ] } },
{ "type": "Feature", "properties": { "gid": 9487824792, "addr:housenumber": "328", "brand": null, "name": "Spruced Up Thrift Shop", "office": null, "operator": null, "ref": null, "shop": "second_hand" }, "geometry": { "type": "Point", "coordinates": [ -122.3312231, 48.475388899822249 ] } },
{ "type": "Feature", "properties": { "gid": 8069501697, "addr:housenumber": null, "brand": null, "name": "Alsum Trading Company", "office": null, "operator": null, "ref": null, "shop": "second_hand" }, "geometry": { "type": "Point", "coordinates": [ -122.4521664, 48.943211699706396 ] } },
{ "type": "Feature", "properties": { "gid": 9281634986, "addr:housenumber": "436", "brand": null, "name": "Trash to Treasures", "office": null, "operator": null, "ref": null, "shop": "second_hand" }, "geometry": { "type": "Point", "coordinates": [ -122.495956599999985, 48.791180899744113 ] } },
{ "type": "Feature", "properties": { "gid": 10261780909, "addr:housenumber": null, "brand": null, "name": "Flip Kids & Maternity Resale Store", "office": null, "operator": null, "ref": null, "shop": "second_hand" }, "geometry": { "type": "Point", "coordinates": [ -122.471315, 48.749678599754404 ] } },
{ "type": "Feature", "properties": { "gid": 7932005418, "addr:housenumber": null, "brand": null, "name": "Sequel", "office": null, "operator": null, "ref": null, "shop": "second_hand" }, "geometry": { "type": "Point", "coordinates": [ -122.9053272, 48.697831799767279 ] } },
{ "type": "Feature", "properties": { "gid": 5247858121, "addr:housenumber": null, "brand": null, "name": "Old City Loan", "office": null, "operator": null, "ref": null, "shop": "variety_store" }, "geometry": { "type": "Point", "coordinates": [ -122.5694981, 48.085806999917153 ] } },
{ "type": "Feature", "properties": { "gid": 5260338952, "addr:housenumber": null, "brand": null, "name": "Second Season Thrift Store", "office": null, "operator": null, "ref": null, "shop": "second_hand" }, "geometry": { "type": "Point", "coordinates": [ -122.6460846, 47.733670900000341 ] } },
{ "type": "Feature", "properties": { "gid": 5145380354, "addr:housenumber": "18883", "brand": null, "name": "Red Plantation", "office": null, "operator": null, "ref": null, "shop": "second_hand" }, "geometry": { "type": "Point", "coordinates": [ -122.646342, 47.734006200000266 ] } },
{ "type": "Feature", "properties": { "gid": 5686358584, "addr:housenumber": null, "brand": "Dollar Tree", "name": "Dollar Tree", "office": null, "operator": null, "ref": null, "shop": "variety_store" }, "geometry": { "type": "Point", "coordinates": [ -122.6407886, 47.740865599998656 ] } },
{ "type": "Feature", "properties": { "gid": 5686358583, "addr:housenumber": null, "brand": null, "name": "Second Season Thrift Store", "office": null, "operator": null, "ref": null, "shop": "second_hand" }, "geometry": { "type": "Point", "coordinates": [ -122.640804700000018, 47.740686999998708 ] } },
{ "type": "Feature", "properties": { "gid": 3921260855, "addr:housenumber": null, "brand": null, "name": "Bainbridge Island Senior Community Center Thrift Shop", "office": null, "operator": "Bainbridge Island Senior Community Center", "ref": null, "shop": "second_hand" }, "geometry": { "type": "Point", "coordinates": [ -122.517593699999978, 47.623422700025692 ] } },
{ "type": "Feature", "properties": { "gid": 9829376217, "addr:housenumber": null, "brand": null, "name": "Dollar General", "office": null, "operator": null, "ref": null, "shop": "variety_store" }, "geometry": { "type": "Point", "coordinates": [ -123.794803200000018, 46.664625300227563 ] } },
{ "type": "Feature", "properties": { "gid": 7755050990, "addr:housenumber": null, "brand": null, "name": "Dream Secondhand Store", "office": null, "operator": null, "ref": null, "shop": "variety_store" }, "geometry": { "type": "Point", "coordinates": [ -123.814134699999983, 46.977765500165809 ] } },
{ "type": "Feature", "properties": { "gid": 5506852996, "addr:housenumber": "1103", "brand": "Goodwill", "name": "Goodwill", "office": null, "operator": null, "ref": null, "shop": "charity" }, "geometry": { "type": "Point", "coordinates": [ -123.805189100000021, 46.975573000166264 ] } },
{ "type": "Feature", "properties": { "gid": 4258005889, "addr:housenumber": null, "brand": null, "name": "$2 only", "office": null, "operator": null, "ref": null, "shop": "variety_store" }, "geometry": { "type": "Point", "coordinates": [ -124.1657552, 47.006612600159897 ] } },
{ "type": "Feature", "properties": { "gid": 8929467081, "addr:housenumber": null, "brand": null, "name": "Blessed Treasure", "office": null, "operator": null, "ref": null, "shop": "second_hand" }, "geometry": { "type": "Point", "coordinates": [ -122.8206756, 47.453502300064052 ] } },
{ "type": "Feature", "properties": { "gid": 9700751685, "addr:housenumber": null, "brand": "Dollar Tree", "name": "Dollar Tree", "office": null, "operator": null, "ref": null, "shop": "variety_store" }, "geometry": { "type": "Point", "coordinates": [ -122.6601326, 47.386368600078924 ] } },
{ "type": "Feature", "properties": { "gid": 5706962906, "addr:housenumber": null, "brand": null, "name": "Tacoma Thrift & Consignment", "office": null, "operator": null, "ref": null, "shop": "second_hand" }, "geometry": { "type": "Point", "coordinates": [ -122.470890700000012, 47.255341200107495 ] } },
{ "type": "Feature", "properties": { "gid": 5413106324, "addr:housenumber": null, "brand": "Dollar Tree", "name": "Dollar Tree", "office": null, "operator": null, "ref": null, "shop": "variety_store" }, "geometry": { "type": "Point", "coordinates": [ -122.477999399999987, 47.236975100111451 ] } },
{ "type": "Feature", "properties": { "gid": 4154717735, "addr:housenumber": null, "brand": null, "name": "Animal Crackers", "office": null, "operator": null, "ref": null, "shop": "second_hand" }, "geometry": { "type": "Point", "coordinates": [ -122.5766528, 47.30868490009594 ] } },
{ "type": "Feature", "properties": { "gid": 521075739, "addr:housenumber": null, "brand": "Dollar Tree", "name": "Dollar Tree", "office": null, "operator": null, "ref": null, "shop": "variety_store" }, "geometry": { "type": "Point", "coordinates": [ -122.46712039999997, 47.221993600114672 ] } },
{ "type": "Feature", "properties": { "gid": 9271049019, "addr:housenumber": null, "brand": null, "name": "Shin Shin", "office": null, "operator": null, "ref": null, "shop": "variety_store" }, "geometry": { "type": "Point", "coordinates": [ -122.4852963, 47.177818700124099 ] } },
{ "type": "Feature", "properties": { "gid": 2390780707, "addr:housenumber": "906", "brand": "Goodwill", "name": "Goodwill", "office": null, "operator": "Evergreen Goodwill", "ref": null, "shop": "charity" }, "geometry": { "type": "Point", "coordinates": [ -122.594948, 46.937185700174062 ] } },
{ "type": "Feature", "properties": { "gid": 10690242487, "addr:housenumber": null, "brand": "Dollar Tree", "name": "Dollar Tree", "office": null, "operator": null, "ref": null, "shop": "variety_store" }, "geometry": { "type": "Point", "coordinates": [ -122.5945634, 46.936928200174094 ] } },
{ "type": "Feature", "properties": { "gid": 8936677182, "addr:housenumber": "4014", "brand": "Goodwill", "name": "Goodwill - Olympia Outlet", "office": null, "operator": null, "ref": null, "shop": "charity" }, "geometry": { "type": "Point", "coordinates": [ -122.835708299999965, 47.048448500151267 ] } },
{ "type": "Feature", "properties": { "gid": 7934995444, "addr:housenumber": null, "brand": "Dollar General", "name": "Dollar General", "office": null, "operator": null, "ref": null, "shop": "variety_store" }, "geometry": { "type": "Point", "coordinates": [ -123.3708751, 46.20018850031034 ] } },
{ "type": "Feature", "properties": { "gid": 8017715360, "addr:housenumber": null, "brand": null, "name": "Thrift Store", "office": null, "operator": null, "ref": null, "shop": "charity" }, "geometry": { "type": "Point", "coordinates": [ -122.7542064, 45.901220200357542 ] } },
{ "type": "Feature", "properties": { "gid": 3731143631, "addr:housenumber": "10017", "brand": "Dollar Tree", "name": "Dollar Tree", "office": null, "operator": null, "ref": "3000", "shop": "variety_store" }, "geometry": { "type": "Point", "coordinates": [ -122.667730799999987, 45.694343700387222 ] } },
{ "type": "Feature", "properties": { "gid": 4448464227, "addr:housenumber": null, "brand": null, "name": "The Treasure Trove", "office": null, "operator": null, "ref": null, "shop": "second_hand" }, "geometry": { "type": "Point", "coordinates": [ -122.549715800000016, 45.668929000390698 ] } },
{ "type": "Feature", "properties": { "gid": 4003583306, "addr:housenumber": "6700", "brand": "Dollar Tree", "name": "Dollar Tree", "office": null, "operator": null, "ref": "5378", "shop": "variety_store" }, "geometry": { "type": "Point", "coordinates": [ -122.5075879, 45.670366000390523 ] } },
{ "type": "Feature", "properties": { "gid": 3972659487, "addr:housenumber": null, "brand": null, "name": "Denim & Frills", "office": null, "operator": null, "ref": null, "shop": "second_hand" }, "geometry": { "type": "Point", "coordinates": [ -122.4754419, 45.60755650039895 ] } },
{ "type": "Feature", "properties": { "gid": 8191451408, "addr:housenumber": null, "brand": "Dollar Tree", "name": "Dollar Tree", "office": null, "operator": null, "ref": null, "shop": "variety_store" }, "geometry": { "type": "Point", "coordinates": [ -117.410335799999984, 47.742308299998314 ] } },
{ "type": "Feature", "properties": { "gid": 4875494997, "addr:housenumber": null, "brand": null, "name": "Dollar Tree", "office": null, "operator": null, "ref": null, "shop": "variety_store" }, "geometry": { "type": "Point", "coordinates": [ -117.281583800000021, 47.679903100012744 ] } },
{ "type": "Feature", "properties": { "gid": 9634747833, "addr:housenumber": null, "brand": "Goodwill", "name": "Goodwill", "office": null, "operator": null, "ref": null, "shop": "charity" }, "geometry": { "type": "Point", "coordinates": [ -117.368074199999967, 47.630626800024054 ] } },
{ "type": "Feature", "properties": { "gid": 10153295623, "addr:housenumber": null, "brand": null, "name": "Spokane Bins", "office": null, "operator": null, "ref": null, "shop": "variety_store" }, "geometry": { "type": "Point", "coordinates": [ -117.410460099999952, 47.671378700014714 ] } },
{ "type": "Feature", "properties": { "gid": 4763539498, "addr:housenumber": null, "brand": null, "name": "Northwest Christian School Thrift", "office": null, "operator": null, "ref": null, "shop": "charity" }, "geometry": { "type": "Point", "coordinates": [ -117.4356061, 47.717979300003968 ] } },
{ "type": "Feature", "properties": { "gid": 4430291275, "addr:housenumber": null, "brand": "Dollar Tree", "name": "Dollar Tree", "office": null, "operator": null, "ref": null, "shop": "variety_store" }, "geometry": { "type": "Point", "coordinates": [ -117.5622464, 47.641731100021509 ] } },
{ "type": "Feature", "properties": { "gid": 4364454425, "addr:housenumber": null, "brand": null, "name": "The Second Hand Store", "office": null, "operator": null, "ref": null, "shop": "second_hand" }, "geometry": { "type": "Point", "coordinates": [ -117.5792523, 47.815804099981207 ] } },
{ "type": "Feature", "properties": { "gid": 7221724587, "addr:housenumber": "230", "brand": null, "name": "The Variety Store", "office": null, "operator": null, "ref": null, "shop": "variety_store" }, "geometry": { "type": "Point", "coordinates": [ -120.0216347, 47.842019899975057 ] } },
{ "type": "Feature", "properties": { "gid": 4011494071, "addr:housenumber": "113", "brand": null, "name": "Douglas County Thrift Shop", "office": null, "operator": "Douglas County Historical Society", "ref": null, "shop": "second_hand" }, "geometry": { "type": "Point", "coordinates": [ -120.072729, 47.647517100020195 ] } },
{ "type": "Feature", "properties": { "gid": 1530133596, "addr:housenumber": "104", "brand": null, "name": "Hidden Treasure", "office": null, "operator": null, "ref": null, "shop": "variety_store" }, "geometry": { "type": "Point", "coordinates": [ -118.336895799999965, 46.067987500331832 ] } },
{ "type": "Feature", "properties": { "gid": 7304456235, "addr:housenumber": null, "brand": "Dollar Tree", "name": "Dollar Tree", "office": null, "operator": null, "ref": null, "shop": "variety_store" }, "geometry": { "type": "Point", "coordinates": [ -119.220014, 46.225508000306114 ] } },
{ "type": "Feature", "properties": { "gid": 10167484896, "addr:housenumber": null, "brand": null, "name": "Ditto Thrift Store", "office": null, "operator": null, "ref": null, "shop": "second_hand" }, "geometry": { "type": "Point", "coordinates": [ -120.3090199, 47.421343000071204 ] } },
{ "type": "Feature", "properties": { "gid": 7929554987, "addr:housenumber": null, "brand": "YMCA", "name": "YMCA", "office": null, "operator": null, "ref": null, "shop": "charity" }, "geometry": { "type": "Point", "coordinates": [ -120.312270599999977, 47.422401200070965 ] } },
{ "type": "Feature", "properties": { "gid": 7161405538, "addr:housenumber": "801", "brand": "Dollar Tree", "name": "Dollar Tree", "office": null, "operator": null, "ref": null, "shop": "variety_store" }, "geometry": { "type": "Point", "coordinates": [ -120.953378299999969, 47.194001500120656 ] } },
{ "type": "Feature", "properties": { "gid": 4934743861, "addr:housenumber": null, "brand": "Goodwill", "name": "Goodwill", "office": null, "operator": null, "ref": null, "shop": "charity" }, "geometry": { "type": "Point", "coordinates": [ -120.4887223, 46.574920000244411 ] } },
{ "type": "Feature", "properties": { "gid": 6708935006, "addr:housenumber": null, "brand": "Dollar Tree", "name": "Dollar Tree", "office": null, "operator": null, "ref": null, "shop": "variety_store" }, "geometry": { "type": "Point", "coordinates": [ -120.488758099999984, 46.57567100024427 ] } },
{ "type": "Feature", "properties": { "gid": 6321780763, "addr:housenumber": null, "brand": "Goodwill", "name": "Goodwill", "office": null, "operator": null, "ref": null, "shop": "charity" }, "geometry": { "type": "Point", "coordinates": [ -122.436907, 47.121149200136095 ] } },
{ "type": "Feature", "properties": { "gid": 5640404862, "addr:housenumber": null, "brand": null, "name": "Secondhand Affordables", "office": null, "operator": null, "ref": null, "shop": "second_hand" }, "geometry": { "type": "Point", "coordinates": [ -122.4340689, 47.129818900134246 ] } },
{ "type": "Feature", "properties": { "gid": 5196652721, "addr:housenumber": null, "brand": null, "name": "Enumclaw Bargain Center", "office": null, "operator": null, "ref": null, "shop": "variety_store" }, "geometry": { "type": "Point", "coordinates": [ -121.9812821, 47.198380000119734 ] } },
{ "type": "Feature", "properties": { "gid": 6624372885, "addr:housenumber": null, "brand": "Dollar Tree", "name": "Dollar Tree", "office": null, "operator": null, "ref": null, "shop": "variety_store" }, "geometry": { "type": "Point", "coordinates": [ -122.173602800000012, 47.32297480009283 ] } },
{ "type": "Feature", "properties": { "gid": 4346147111, "addr:housenumber": "1231", "brand": "Dollar Tree", "name": "Dollar Tree", "office": null, "operator": null, "ref": null, "shop": "variety_store" }, "geometry": { "type": "Point", "coordinates": [ -122.2235981, 47.318939600093721 ] } },
{ "type": "Feature", "properties": { "gid": 5914551511, "addr:housenumber": null, "brand": "Dollar Tree", "name": "Dollar Tree", "office": null, "operator": null, "ref": null, "shop": "variety_store" }, "geometry": { "type": "Point", "coordinates": [ -122.295442400000013, 47.246794900109343 ] } },
{ "type": "Feature", "properties": { "gid": 8271252467, "addr:housenumber": null, "brand": "Dollar Tree", "name": "Dollar Tree", "office": null, "operator": null, "ref": null, "shop": "variety_store" }, "geometry": { "type": "Point", "coordinates": [ -122.30189919999998, 47.201837300118996 ] } },
{ "type": "Feature", "properties": { "gid": 5431002501, "addr:housenumber": null, "brand": "Dollar Tree", "name": "Dollar Tree", "office": null, "operator": null, "ref": null, "shop": "variety_store" }, "geometry": { "type": "Point", "coordinates": [ -122.3589475, 47.156816500128564 ] } },
{ "type": "Feature", "properties": { "gid": 6486246272, "addr:housenumber": null, "brand": null, "name": "Second Use", "office": null, "operator": null, "ref": null, "shop": "second_hand" }, "geometry": { "type": "Point", "coordinates": [ -122.4405894, 47.240196800110745 ] } },
{ "type": "Feature", "properties": { "gid": 5898045589, "addr:housenumber": null, "brand": "Daiso", "name": "Daiso Japan", "office": null, "operator": null, "ref": null, "shop": "variety_store" }, "geometry": { "type": "Point", "coordinates": [ -122.310636200000019, 47.313743900094842 ] } },
{ "type": "Feature", "properties": { "gid": 6098409587, "addr:housenumber": "26100", "brand": "Dollar Tree", "name": "Dollar Tree", "office": null, "operator": null, "ref": null, "shop": "variety_store" }, "geometry": { "type": "Point", "coordinates": [ -122.302402699999988, 47.367611200083054 ] } },
{ "type": "Feature", "properties": { "gid": 3721662313, "addr:housenumber": "215", "brand": null, "name": "Seattle Children's Hospital Bargain Boutique", "office": null, "operator": null, "ref": null, "shop": "charity" }, "geometry": { "type": "Point", "coordinates": [ -122.234339100000014, 47.381665700079964 ] } },
{ "type": "Feature", "properties": { "gid": 6034240260, "addr:housenumber": null, "brand": "The Salvation Army", "name": "The Salvation Army", "office": null, "operator": null, "ref": null, "shop": "charity" }, "geometry": { "type": "Point", "coordinates": [ -122.231004099999979, 47.368596200082834 ] } },
{ "type": "Feature", "properties": { "gid": 3605959719, "addr:housenumber": null, "brand": "Dollar Tree", "name": "Dollar Tree", "office": null, "operator": null, "ref": null, "shop": "variety_store" }, "geometry": { "type": "Point", "coordinates": [ -122.255148599999984, 47.454889300063726 ] } },
{ "type": "Feature", "properties": { "gid": 2968207819, "addr:housenumber": "757", "brand": "Dollar Tree", "name": "Dollar Tree", "office": null, "operator": null, "ref": null, "shop": "variety_store" }, "geometry": { "type": "Point", "coordinates": [ -122.2195316, 47.471396100060055 ] } },
{ "type": "Feature", "properties": { "gid": 4909104553, "addr:housenumber": "2819", "brand": null, "name": "Bargain Plaza", "office": null, "operator": null, "ref": null, "shop": "variety_store" }, "geometry": { "type": "Point", "coordinates": [ -122.1781987, 47.500722700053487 ] } },
{ "type": "Feature", "properties": { "gid": 3657181526, "addr:housenumber": "9670", "brand": null, "name": "Habib Discount Store", "office": null, "operator": null, "ref": null, "shop": "variety_store" }, "geometry": { "type": "Point", "coordinates": [ -122.352502200000018, 47.515671900050123 ] } },
{ "type": "Feature", "properties": { "gid": 5658983761, "addr:housenumber": null, "brand": null, "name": "Burien Discount", "office": null, "operator": null, "ref": null, "shop": "variety_store" }, "geometry": { "type": "Point", "coordinates": [ -122.348681199999973, 47.480835300057954 ] } },
{ "type": "Feature", "properties": { "gid": 4455865489, "addr:housenumber": null, "brand": null, "name": "Goodwill Outlet", "office": null, "operator": null, "ref": null, "shop": "charity" }, "geometry": { "type": "Point", "coordinates": [ -122.3266714, 47.586703800034073 ] } },
{ "type": "Feature", "properties": { "gid": 2323794537, "addr:housenumber": "4544", "brand": null, "name": null, "office": null, "operator": null, "ref": null, "shop": "variety_store" }, "geometry": { "type": "Point", "coordinates": [ -122.312939, 47.66260440001674 ] } },
{ "type": "Feature", "properties": { "gid": 2323794552, "addr:housenumber": "4552", "brand": "Goodwill", "name": "Goodwill", "office": null, "operator": null, "ref": null, "shop": "charity" }, "geometry": { "type": "Point", "coordinates": [ -122.3129252, 47.662837500016678 ] } },
{ "type": "Feature", "properties": { "gid": 3326288970, "addr:housenumber": "12451", "brand": null, "name": "Eastside Community Aid Thrift Shop", "office": null, "operator": null, "ref": null, "shop": "second_hand" }, "geometry": { "type": "Point", "coordinates": [ -122.1886494, 47.711725400005406 ] } },
{ "type": "Feature", "properties": { "gid": 5880376222, "addr:housenumber": "12030", "brand": "Dollar Tree", "name": "Dollar Tree", "office": null, "operator": null, "ref": null, "shop": "variety_store" }, "geometry": { "type": "Point", "coordinates": [ -122.1659376, 47.665535400016054 ] } },
{ "type": "Feature", "properties": { "gid": 3893778045, "addr:housenumber": null, "brand": null, "name": "Seattle Children's Bargain Boutique", "office": null, "operator": null, "ref": null, "shop": "charity" }, "geometry": { "type": "Point", "coordinates": [ -122.138348, 47.630448000024089 ] } },
{ "type": "Feature", "properties": { "gid": 5436373826, "addr:housenumber": null, "brand": null, "name": "The Recology Store", "office": null, "operator": null, "ref": null, "shop": "second_hand" }, "geometry": { "type": "Point", "coordinates": [ -122.0407892, 47.540064900044626 ] } },
{ "type": "Feature", "properties": { "gid": 3157335387, "addr:housenumber": "14158", "brand": "Dollar Tree", "name": "Dollar Tree", "office": null, "operator": null, "ref": "5276", "shop": "variety_store" }, "geometry": { "type": "Point", "coordinates": [ -122.1508777, 47.755821899995183 ] } },
{ "type": "Feature", "properties": { "gid": 3157335385, "addr:housenumber": "14160", "brand": "Value Village", "name": "Value Village", "office": null, "operator": null, "ref": null, "shop": "second_hand" }, "geometry": { "type": "Point", "coordinates": [ -122.150631, 47.755825199995193 ] } },
{ "type": "Feature", "properties": { "gid": 3190953160, "addr:housenumber": null, "brand": "Dollar Tree", "name": "Dollar Tree", "office": null, "operator": null, "ref": null, "shop": "variety_store" }, "geometry": { "type": "Point", "coordinates": [ -122.221212399999985, 47.910639299958916 ] } },
{ "type": "Feature", "properties": { "gid": 4893992339, "addr:housenumber": null, "brand": null, "name": "Gigi's Closet", "office": null, "operator": null, "ref": null, "shop": "second_hand" }, "geometry": { "type": "Point", "coordinates": [ -122.2794092, 47.880529299966014 ] } },
{ "type": "Feature", "properties": { "gid": 6944367069, "addr:housenumber": null, "brand": "Dollar Tree", "name": "Dollar Tree", "office": null, "operator": null, "ref": null, "shop": "variety_store" }, "geometry": { "type": "Point", "coordinates": [ -122.273635699999986, 47.874589999967405 ] } },
{ "type": "Feature", "properties": { "gid": 8936084442, "addr:housenumber": "17171", "brand": null, "name": "Two Trading Tigers", "office": null, "operator": null, "ref": null, "shop": "second_hand" }, "geometry": { "type": "Point", "coordinates": [ -122.280322399999989, 47.754496099995514 ] } },
{ "type": "Feature", "properties": { "gid": 2462453216, "addr:housenumber": "1549", "brand": "Dollar Tree", "name": "Dollar Tree", "office": null, "operator": null, "ref": null, "shop": "variety_store" }, "geometry": { "type": "Point", "coordinates": [ -122.310771, 47.732774000000546 ] } },
{ "type": "Feature", "properties": { "gid": 5352007423, "addr:housenumber": null, "brand": "Dollar Tree", "name": "Dollar Tree", "office": null, "operator": null, "ref": null, "shop": "variety_store" }, "geometry": { "type": "Point", "coordinates": [ -122.174724800000021, 48.063085299922598 ] } },
{ "type": "Feature", "properties": { "gid": 2941851721, "addr:housenumber": "1334", "brand": "Value Village", "name": "Value Village", "office": null, "operator": null, "ref": null, "shop": "second_hand" }, "geometry": { "type": "Point", "coordinates": [ -122.175775500000015, 48.065444399922022 ] } },
{ "type": "Feature", "properties": { "gid": 6593039620, "addr:housenumber": null, "brand": "Dollar Tree", "name": "Dollar Tree", "office": null, "operator": null, "ref": null, "shop": "variety_store" }, "geometry": { "type": "Point", "coordinates": [ -122.173856699999973, 48.098509999914093 ] } },
{ "type": "Feature", "properties": { "gid": 5808307109, "addr:housenumber": null, "brand": null, "name": "Good Cheer Thrift Store", "office": null, "operator": null, "ref": null, "shop": "charity" }, "geometry": { "type": "Point", "coordinates": [ -122.409169, 48.040146399928098 ] } },
{ "type": "Feature", "properties": { "gid": 6366528734, "addr:housenumber": null, "brand": null, "name": "Stanwood Camano Thrift Store", "office": null, "operator": "stanwoodcamanofoodbank.org", "ref": null, "shop": "second_hand" }, "geometry": { "type": "Point", "coordinates": [ -122.370752899999971, 48.242062799879371 ] } },
{ "type": "Feature", "properties": { "gid": 2196982250, "addr:housenumber": null, "brand": null, "name": "Red Door Antique Mall", "office": null, "operator": null, "ref": null, "shop": "second_hand" }, "geometry": { "type": "Point", "coordinates": [ -122.3364319, 48.421869899835386 ] } },
{ "type": "Feature", "properties": { "gid": 10297810609, "addr:housenumber": null, "brand": null, "name": "Furnishings Now Consignment", "office": null, "operator": null, "ref": null, "shop": "second_hand" }, "geometry": { "type": "Point", "coordinates": [ -122.450616499999967, 48.758146299752305 ] } },
{ "type": "Feature", "properties": { "gid": 5533403273, "addr:housenumber": null, "brand": null, "name": "Discount Store", "office": null, "operator": null, "ref": null, "shop": "variety_store" }, "geometry": { "type": "Point", "coordinates": [ -122.347453799999982, 48.919592199712277 ] } },
{ "type": "Feature", "properties": { "gid": 4365334182, "addr:housenumber": "150", "brand": "Value Village", "name": "Value Village", "office": null, "operator": "Saver's", "ref": null, "shop": "second_hand" }, "geometry": { "type": "Point", "coordinates": [ -122.484029, 48.787286999745085 ] } },
{ "type": "Feature", "properties": { "gid": 9325235817, "addr:housenumber": null, "brand": "Dollar Tree", "name": "Dollar Tree", "office": null, "operator": null, "ref": null, "shop": "variety_store" }, "geometry": { "type": "Point", "coordinates": [ -122.4828956, 48.784624999745745 ] } },
{ "type": "Feature", "properties": { "gid": 3021408758, "addr:housenumber": "1115", "brand": "Goodwill", "name": "Goodwill", "office": null, "operator": "Evergreen Goodwill", "ref": null, "shop": "charity" }, "geometry": { "type": "Point", "coordinates": [ -122.4620077, 48.774092399748369 ] } },
{ "type": "Feature", "properties": { "gid": 4797364521, "addr:housenumber": "322", "brand": "Dollar Tree", "name": "Dollar Tree", "office": null, "operator": null, "ref": null, "shop": "variety_store" }, "geometry": { "type": "Point", "coordinates": [ -122.472857, 48.731471799758914 ] } },
{ "type": "Feature", "properties": { "gid": 10133924234, "addr:housenumber": null, "brand": null, "name": "WAIF Thrift", "office": null, "operator": null, "ref": null, "shop": "charity" }, "geometry": { "type": "Point", "coordinates": [ -122.643979, 48.301786499864825 ] } },
{ "type": "Feature", "properties": { "gid": 3889951664, "addr:housenumber": null, "brand": "Goodwill", "name": "Goodwill", "office": null, "operator": null, "ref": null, "shop": "charity" }, "geometry": { "type": "Point", "coordinates": [ -122.623493300000021, 47.532737100046283 ] } },
{ "type": "Feature", "properties": { "gid": 6617268319, "addr:housenumber": null, "brand": "Dollar Tree", "name": "Dollar Tree", "office": null, "operator": null, "ref": null, "shop": "variety_store" }, "geometry": { "type": "Point", "coordinates": [ -122.628714, 47.532791400046257 ] } },
{ "type": "Feature", "properties": { "gid": 5661542641, "addr:housenumber": null, "brand": null, "name": "Tin Man's Second Hand", "office": null, "operator": null, "ref": null, "shop": "second_hand" }, "geometry": { "type": "Point", "coordinates": [ -122.6404899, 47.540423700044549 ] } },
{ "type": "Feature", "properties": { "gid": 5416734428, "addr:housenumber": null, "brand": "Dollar Tree", "name": "Dollar Tree", "office": null, "operator": null, "ref": null, "shop": "variety_store" }, "geometry": { "type": "Point", "coordinates": [ -122.686601400000015, 47.655442300018372 ] } },
{ "type": "Feature", "properties": { "gid": 5395180427, "addr:housenumber": null, "brand": "Goodwill", "name": "Goodwill", "office": null, "operator": null, "ref": null, "shop": "charity" }, "geometry": { "type": "Point", "coordinates": [ -123.434674799999968, 48.113234799910543 ] } },
{ "type": "Feature", "properties": { "gid": 6465857445, "addr:housenumber": null, "brand": null, "name": "Lucky Star", "office": null, "operator": null, "ref": null, "shop": "second_hand" }, "geometry": { "type": "Point", "coordinates": [ -123.116332, 48.080839599918328 ] } },
{ "type": "Feature", "properties": { "gid": 10052463717, "addr:housenumber": null, "brand": null, "name": "Dancing with Francis Quilt Studio", "office": null, "operator": null, "ref": null, "shop": "variety_store" }, "geometry": { "type": "Point", "coordinates": [ -123.134459, 48.075863499919521 ] } },
{ "type": "Feature", "properties": { "gid": 4840570401, "addr:housenumber": null, "brand": null, "name": "Destiny", "office": null, "operator": null, "ref": null, "shop": "variety_store" }, "geometry": { "type": "Point", "coordinates": [ -124.3858035, 47.943251099951183 ] } },
{ "type": "Feature", "properties": { "gid": 2118593003, "addr:housenumber": null, "brand": "Dollar Tree", "name": "Dollar Tree", "office": null, "operator": null, "ref": null, "shop": "variety_store" }, "geometry": { "type": "Point", "coordinates": [ -123.8496668, 46.975737100166228 ] } },
{ "type": "Feature", "properties": { "gid": 7747202386, "addr:housenumber": null, "brand": "Habitat for Humanity ReStore", "name": "Habitat for Humanity ReStore", "office": null, "operator": null, "ref": null, "shop": "charity" }, "geometry": { "type": "Point", "coordinates": [ -123.856011, 46.975407100166294 ] } },
{ "type": "Feature", "properties": { "gid": 7752025286, "addr:housenumber": null, "brand": null, "name": "Corner Market", "office": null, "operator": null, "ref": null, "shop": "variety_store" }, "geometry": { "type": "Point", "coordinates": [ -124.1065355, 46.849323400191693 ] } },
{ "type": "Feature", "properties": { "gid": 5740082530, "addr:housenumber": "301", "brand": "Dollar Tree", "name": "Dollar Tree", "office": null, "operator": null, "ref": null, "shop": "variety_store" }, "geometry": { "type": "Point", "coordinates": [ -123.121509, 47.230919100112757 ] } },
{ "type": "Feature", "properties": { "gid": 2093494139, "addr:housenumber": "301", "brand": "Goodwill", "name": "Goodwill", "office": null, "operator": null, "ref": null, "shop": "charity" }, "geometry": { "type": "Point", "coordinates": [ -123.1225677, 47.230371600112861 ] } },
{ "type": "Feature", "properties": { "gid": 10052510017, "addr:housenumber": null, "brand": null, "name": "Denali", "office": null, "operator": null, "ref": null, "shop": "variety_store" }, "geometry": { "type": "Point", "coordinates": [ -122.697687399999978, 47.529502500047009 ] } },
{ "type": "Feature", "properties": { "gid": 5910392591, "addr:housenumber": null, "brand": "Goodwill", "name": "Goodwill", "office": null, "operator": null, "ref": null, "shop": "charity" }, "geometry": { "type": "Point", "coordinates": [ -122.5077725, 47.256299700107284 ] } },
{ "type": "Feature", "properties": { "gid": 5423523721, "addr:housenumber": null, "brand": "Dollar Tree", "name": "Dollar Tree", "office": null, "operator": null, "ref": null, "shop": "variety_store" }, "geometry": { "type": "Point", "coordinates": [ -122.5194564, 47.256400000107284 ] } },
{ "type": "Feature", "properties": { "gid": 2358054608, "addr:housenumber": "1145", "brand": "Goodwill", "name": "Goodwill", "office": null, "operator": null, "ref": null, "shop": "charity" }, "geometry": { "type": "Point", "coordinates": [ -122.769794599999983, 47.057205600149445 ] } },
{ "type": "Feature", "properties": { "gid": 2488664938, "addr:housenumber": null, "brand": "Habitat for Humanity ReStore", "name": "Habitat for Humanity ReStore", "office": null, "operator": null, "ref": null, "shop": "charity" }, "geometry": { "type": "Point", "coordinates": [ -122.939733, 47.045145200151943 ] } },
{ "type": "Feature", "properties": { "gid": 2351733190, "addr:housenumber": null, "brand": "Goodwill", "name": "Goodwill", "office": null, "operator": null, "ref": null, "shop": "charity" }, "geometry": { "type": "Point", "coordinates": [ -122.9395981, 47.046212700151735 ] } },
{ "type": "Feature", "properties": { "gid": 2343843805, "addr:housenumber": "4800", "brand": "Goodwill", "name": "Goodwill", "office": null, "operator": null, "ref": null, "shop": "charity" }, "geometry": { "type": "Point", "coordinates": [ -122.8208205, 46.997840700161696 ] } },
{ "type": "Feature", "properties": { "gid": 2378445075, "addr:housenumber": null, "brand": null, "name": "VJ's Bargain Barn", "office": null, "operator": null, "ref": null, "shop": "variety_store" }, "geometry": { "type": "Point", "coordinates": [ -123.020106, 46.804025900200628 ] } },
{ "type": "Feature", "properties": { "gid": 9201875487, "addr:housenumber": null, "brand": null, "name": "A Second Time Around Thrift Store", "office": null, "operator": null, "ref": null, "shop": "second_hand" }, "geometry": { "type": "Point", "coordinates": [ -122.9585362, 46.656729000229063 ] } },
{ "type": "Feature", "properties": { "gid": 9213346571, "addr:housenumber": null, "brand": null, "name": "Thrift Center Thrift Store", "office": null, "operator": null, "ref": null, "shop": "second_hand" }, "geometry": { "type": "Point", "coordinates": [ -122.9646883, 46.676965700225203 ] } },
{ "type": "Feature", "properties": { "gid": 6387061490, "addr:housenumber": null, "brand": "Dollar Tree", "name": "Dollar Tree", "office": null, "operator": null, "ref": null, "shop": "variety_store" }, "geometry": { "type": "Point", "coordinates": [ -122.98022210000002, 46.676420000225313 ] } },
{ "type": "Feature", "properties": { "gid": 9201875421, "addr:housenumber": null, "brand": null, "name": "Visiting Nurses Thrift Store", "office": null, "operator": null, "ref": null, "shop": "second_hand" }, "geometry": { "type": "Point", "coordinates": [ -122.970461700000016, 46.664428600227609 ] } },
{ "type": "Feature", "properties": { "gid": 3949252962, "addr:housenumber": null, "brand": "Dollar Tree", "name": "Dollar Tree", "office": null, "operator": null, "ref": null, "shop": "variety_store" }, "geometry": { "type": "Point", "coordinates": [ -122.9253829, 46.147305400319063 ] } },
{ "type": "Feature", "properties": { "gid": 8281463482, "addr:housenumber": null, "brand": null, "name": "Top Shelf Resale", "office": null, "operator": null, "ref": null, "shop": "second_hand" }, "geometry": { "type": "Point", "coordinates": [ -122.747781099999969, 45.90105290035757 ] } },
{ "type": "Feature", "properties": { "gid": 5184914679, "addr:housenumber": null, "brand": "Dollar Tree", "name": "Dollar Tree", "office": null, "operator": null, "ref": null, "shop": "variety_store" }, "geometry": { "type": "Point", "coordinates": [ -122.7458961, 45.902413900357367 ] } },
{ "type": "Feature", "properties": { "gid": 7434846189, "addr:housenumber": "717", "brand": null, "name": "LiquidNation Liquidators", "office": null, "operator": null, "ref": null, "shop": "variety_store" }, "geometry": { "type": "Point", "coordinates": [ -122.640237499999969, 45.6267513003964 ] } },
{ "type": "Feature", "properties": { "gid": 4414038005, "addr:housenumber": null, "brand": null, "name": "Thrift Store Dollar Clothing", "office": null, "operator": null, "ref": null, "shop": "second_hand" }, "geometry": { "type": "Point", "coordinates": [ -122.5989901, 45.644122700394071 ] } },
{ "type": "Feature", "properties": { "gid": 4414037985, "addr:housenumber": null, "brand": null, "name": "99 Discount Mart", "office": null, "operator": null, "ref": null, "shop": "variety_store" }, "geometry": { "type": "Point", "coordinates": [ -122.5981234, 45.644385000394024 ] } },
{ "type": "Feature", "properties": { "gid": 3718953486, "addr:housenumber": "7809-B", "brand": "Dollar Tree", "name": "Dollar Tree", "office": null, "operator": null, "ref": null, "shop": "variety_store" }, "geometry": { "type": "Point", "coordinates": [ -122.591412300000016, 45.650530200393199 ] } },
{ "type": "Feature", "properties": { "gid": 4107096247, "addr:housenumber": null, "brand": "Dollar Tree", "name": "Dollar Tree", "office": null, "operator": null, "ref": null, "shop": "variety_store" }, "geometry": { "type": "Point", "coordinates": [ -117.241366, 47.657835400017817 ] } },
{ "type": "Feature", "properties": { "gid": 9274336654, "addr:housenumber": "11512", "brand": null, "name": "Next To New Thrift Store", "office": null, "operator": null, "ref": null, "shop": "second_hand" }, "geometry": { "type": "Point", "coordinates": [ -117.250228400000012, 47.656029600018229 ] } },
{ "type": "Feature", "properties": { "gid": 6780465733, "addr:housenumber": null, "brand": null, "name": "Mary Sue's Bought Before Botique", "office": null, "operator": null, "ref": null, "shop": "second_hand" }, "geometry": { "type": "Point", "coordinates": [ -117.37933649999998, 47.657139300017988 ] } },
{ "type": "Feature", "properties": { "gid": 4958022865, "addr:housenumber": null, "brand": null, "name": "Volunteers of America Thrift Store", "office": null, "operator": null, "ref": null, "shop": "second_hand" }, "geometry": { "type": "Point", "coordinates": [ -117.321085, 47.674931700013893 ] } },
{ "type": "Feature", "properties": { "gid": 9487406820, "addr:housenumber": "5015", "brand": null, "name": "Dr. D's Treasures", "office": null, "operator": null, "ref": null, "shop": "second_hand" }, "geometry": { "type": "Point", "coordinates": [ -117.3650767, 47.70383330000724 ] } },
{ "type": "Feature", "properties": { "gid": 4376941533, "addr:housenumber": null, "brand": "Dollar Tree", "name": "Dollar Tree", "office": null, "operator": null, "ref": null, "shop": "variety_store" }, "geometry": { "type": "Point", "coordinates": [ -117.410603699999982, 47.72577690000216 ] } },
{ "type": "Feature", "properties": { "gid": 9469727814, "addr:housenumber": "913", "brand": null, "name": "ZipperZ on Garland", "office": null, "operator": null, "ref": null, "shop": "second_hand" }, "geometry": { "type": "Point", "coordinates": [ -117.4250956, 47.693395100009631 ] } },
{ "type": "Feature", "properties": { "gid": 4156250892, "addr:housenumber": null, "brand": "Dollar Tree", "name": "Dollar Tree", "office": null, "operator": null, "ref": null, "shop": "variety_store" }, "geometry": { "type": "Point", "coordinates": [ -117.443469, 47.699230700008314 ] } },
{ "type": "Feature", "properties": { "gid": 6643121323, "addr:housenumber": "120", "brand": null, "name": "Trouvaille", "office": null, "operator": "Terrie Cryfynduw", "ref": null, "shop": "second_hand" }, "geometry": { "type": "Point", "coordinates": [ -117.4744727, 47.954055899948621 ] } },
{ "type": "Feature", "properties": { "gid": 8477054044, "addr:housenumber": null, "brand": "Dollar Tree", "name": "Dollar Tree", "office": null, "operator": null, "ref": null, "shop": "variety_store" }, "geometry": { "type": "Point", "coordinates": [ -119.5104646, 48.419168099836064 ] } },
{ "type": "Feature", "properties": { "gid": 8781736714, "addr:housenumber": null, "brand": "Dollar Tree", "name": "Dollar Tree", "office": null, "operator": null, "ref": null, "shop": "variety_store" }, "geometry": { "type": "Point", "coordinates": [ -119.188949899999983, 46.278912600297097 ] } },
{ "type": "Feature", "properties": { "gid": 7201960459, "addr:housenumber": "87", "brand": "Dollar Tree", "name": "Dollar Tree", "office": null, "operator": null, "ref": null, "shop": "variety_store" }, "geometry": { "type": "Point", "coordinates": [ -119.2647474, 46.262463300299899 ] } },
{ "type": "Feature", "properties": { "gid": 1769018852, "addr:housenumber": null, "brand": "Goodwill", "name": "Goodwill", "office": null, "operator": null, "ref": null, "shop": "charity" }, "geometry": { "type": "Point", "coordinates": [ -120.2800541, 47.404746500074872 ] } },
{ "type": "Feature", "properties": { "gid": 10168160628, "addr:housenumber": null, "brand": null, "name": "Discount Center", "office": null, "operator": null, "ref": null, "shop": "variety_store" }, "geometry": { "type": "Point", "coordinates": [ -120.3021997, 47.413600800072906 ] } },
{ "type": "Feature", "properties": { "gid": 10713570086, "addr:housenumber": null, "brand": "Dollar Tree", "name": "Dollar Tree", "office": null, "operator": null, "ref": null, "shop": "variety_store" }, "geometry": { "type": "Point", "coordinates": [ -120.5462212, 46.996360500161991 ] } },
{ "type": "Feature", "properties": { "gid": 4920039882, "addr:housenumber": null, "brand": "Dollar Tree", "name": "Dollar Tree", "office": null, "operator": null, "ref": null, "shop": "variety_store" }, "geometry": { "type": "Point", "coordinates": [ -120.4911398, 46.607608800238317 ] } },
{ "type": "Feature", "properties": { "gid": 6346190749, "addr:housenumber": null, "brand": null, "name": null, "office": null, "operator": null, "ref": null, "shop": "second_hand" }, "geometry": { "type": "Point", "coordinates": [ -122.27554210000001, 46.556299900247843 ] } },
{ "type": "Feature", "properties": { "gid": 6355036692, "addr:housenumber": null, "brand": "Dollar Tree", "name": "Dollar Tree", "office": null, "operator": null, "ref": null, "shop": "variety_store" }, "geometry": { "type": "Point", "coordinates": [ -122.398519400000012, 47.055837100149724 ] } },
{ "type": "Feature", "properties": { "gid": 7799752685, "addr:housenumber": null, "brand": "Goodwill", "name": "Goodwill", "office": null, "operator": null, "ref": null, "shop": "charity" }, "geometry": { "type": "Point", "coordinates": [ -122.296153, 47.054199300150074 ] } },
{ "type": "Feature", "properties": { "gid": 4280918442, "addr:housenumber": null, "brand": "Dollar Tree", "name": "Dollar Tree", "office": null, "operator": null, "ref": null, "shop": "variety_store" }, "geometry": { "type": "Point", "coordinates": [ -122.295839, 47.054231700150055 ] } },
{ "type": "Feature", "properties": { "gid": 9225353552, "addr:housenumber": null, "brand": null, "name": "Deseret Industries", "office": null, "operator": null, "ref": null, "shop": "charity" }, "geometry": { "type": "Point", "coordinates": [ -122.2960643, 47.110819800138259 ] } },
{ "type": "Feature", "properties": { "gid": 921033182, "addr:housenumber": "80", "brand": "Dollar Tree", "name": "Dollar Tree", "office": null, "operator": null, "ref": "7562", "shop": "variety_store" }, "geometry": { "type": "Point", "coordinates": [ -122.035433700000013, 47.52944570004702 ] } },
{ "type": "Feature", "properties": { "gid": 5196737332, "addr:housenumber": null, "brand": null, "name": "Plateau Outreach Ministries", "office": null, "operator": null, "ref": null, "shop": "charity" }, "geometry": { "type": "Point", "coordinates": [ -121.98828730000001, 47.205164000118273 ] } },
{ "type": "Feature", "properties": { "gid": 5196737427, "addr:housenumber": null, "brand": null, "name": "M&M Thrift Store", "office": null, "operator": null, "ref": null, "shop": "charity" }, "geometry": { "type": "Point", "coordinates": [ -121.9884081, 47.204728300118347 ] } },
{ "type": "Feature", "properties": { "gid": 4285585030, "addr:housenumber": null, "brand": "Dollar Tree", "name": "Dollar Tree", "office": null, "operator": null, "ref": null, "shop": "variety_store" }, "geometry": { "type": "Point", "coordinates": [ -122.2912176, 47.15562420012882 ] } },
{ "type": "Feature", "properties": { "gid": 8269052879, "addr:housenumber": null, "brand": null, "name": "Her Shabby Chateau", "office": null, "operator": null, "ref": null, "shop": "second_hand" }, "geometry": { "type": "Point", "coordinates": [ -122.29451939999997, 47.190881500121328 ] } },
{ "type": "Feature", "properties": { "gid": 7797080988, "addr:housenumber": null, "brand": "Dollar Tree", "name": "Dollar Tree", "office": null, "operator": null, "ref": null, "shop": "variety_store" }, "geometry": { "type": "Point", "coordinates": [ -122.35787, 47.244298500109878 ] } },
{ "type": "Feature", "properties": { "gid": 5659087982, "addr:housenumber": null, "brand": null, "name": "Nu 2 U Thrift Store", "office": null, "operator": null, "ref": null, "shop": "second_hand" }, "geometry": { "type": "Point", "coordinates": [ -122.3251703, 47.405485100074699 ] } },
{ "type": "Feature", "properties": { "gid": 5257030725, "addr:housenumber": null, "brand": null, "name": "J&E Filipino Variety Store", "office": null, "operator": null, "ref": null, "shop": "variety_store" }, "geometry": { "type": "Point", "coordinates": [ -122.303630900000016, 47.366420300083327 ] } },
{ "type": "Feature", "properties": { "gid": 4388479897, "addr:housenumber": "24034", "brand": "Value Village", "name": "Value Village", "office": null, "operator": null, "ref": null, "shop": "second_hand" }, "geometry": { "type": "Point", "coordinates": [ -122.200549199999983, 47.386079800078988 ] } },
{ "type": "Feature", "properties": { "gid": 5730670745, "addr:housenumber": null, "brand": "Dollar Tree", "name": "Dollar Tree", "office": null, "operator": null, "ref": null, "shop": "variety_store" }, "geometry": { "type": "Point", "coordinates": [ -122.2689942, 47.522627600048565 ] } },
{ "type": "Feature", "properties": { "gid": 2397401936, "addr:housenumber": "4535", "brand": null, "name": "Discovery Shop", "office": null, "operator": null, "ref": null, "shop": "second_hand" }, "geometry": { "type": "Point", "coordinates": [ -122.386971699999989, 47.561898300039694 ] } },
{ "type": "Feature", "properties": { "gid": 2397384397, "addr:housenumber": "4504", "brand": null, "name": "Stop and Shop", "office": null, "operator": "Senior Center of West Seattle", "ref": null, "shop": "second_hand" }, "geometry": { "type": "Point", "coordinates": [ -122.3865602, 47.562636000039525 ] } },
{ "type": "Feature", "properties": { "gid": 2434531614, "addr:housenumber": "710", "brand": "Daiso", "name": "Daiso Japan", "office": null, "operator": null, "ref": null, "shop": "variety_store" }, "geometry": { "type": "Point", "coordinates": [ -122.3261439, 47.596349500031877 ] } },
{ "type": "Feature", "properties": { "gid": 3235100306, "addr:housenumber": null, "brand": null, "name": "UW Surplus", "office": null, "operator": null, "ref": null, "shop": "second_hand" }, "geometry": { "type": "Point", "coordinates": [ -122.301322099999979, 47.662122100016823 ] } },
{ "type": "Feature", "properties": { "gid": 4518662492, "addr:housenumber": "12030", "brand": "Dollar Tree", "name": "Dollar Tree", "office": null, "operator": null, "ref": "7063", "shop": "variety_store" }, "geometry": { "type": "Point", "coordinates": [ -122.1797211, 47.680543100012606 ] } },
{ "type": "Feature", "properties": { "gid": 9480333616, "addr:housenumber": null, "brand": null, "name": "Thrift Culture", "office": null, "operator": null, "ref": null, "shop": "second_hand" }, "geometry": { "type": "Point", "coordinates": [ -122.202976699999979, 47.615443400027516 ] } },
{ "type": "Feature", "properties": { "gid": 10634836356, "addr:housenumber": null, "brand": null, "name": "Reiwatakiya", "office": null, "operator": null, "ref": null, "shop": "variety_store" }, "geometry": { "type": "Point", "coordinates": [ -122.2021022, 47.612462700028196 ] } },
{ "type": "Feature", "properties": { "gid": 9560626051, "addr:housenumber": "5530", "brand": "Value Village", "name": "Value Village", "office": null, "operator": null, "ref": null, "shop": "second_hand" }, "geometry": { "type": "Point", "coordinates": [ -122.042289, 47.552499400041818 ] } },
{ "type": "Feature", "properties": { "gid": 5530112713, "addr:housenumber": null, "brand": "Dollar Tree", "name": "Dollar Tree", "office": null, "operator": null, "ref": null, "shop": "variety_store" }, "geometry": { "type": "Point", "coordinates": [ -122.2057262, 47.81112789998231 ] } },
{ "type": "Feature", "properties": { "gid": 8001178222, "addr:housenumber": null, "brand": "Daiso", "name": "Daiso Japan", "office": null, "operator": null, "ref": null, "shop": "variety_store" }, "geometry": { "type": "Point", "coordinates": [ -122.27261510000001, 47.826949499978603 ] } },
{ "type": "Feature", "properties": { "gid": 10696322994, "addr:housenumber": null, "brand": null, "name": "Senior Thrift", "office": null, "operator": null, "ref": null, "shop": "second_hand" }, "geometry": { "type": "Point", "coordinates": [ -122.393272900000014, 47.991108099939801 ] } },
{ "type": "Feature", "properties": { "gid": 6582873692, "addr:housenumber": null, "brand": "Dollar Tree", "name": "Dollar Tree", "office": null, "operator": null, "ref": null, "shop": "variety_store" }, "geometry": { "type": "Point", "coordinates": [ -122.2189811, 47.928212999954745 ] } },
{ "type": "Feature", "properties": { "gid": 6225452686, "addr:housenumber": "2302", "brand": "Habitat for Humanity ReStore", "name": "Habitat for Humanity ReStore", "office": null, "operator": null, "ref": null, "shop": "charity" }, "geometry": { "type": "Point", "coordinates": [ -122.20185, 47.986700999940858 ] } },
{ "type": "Feature", "properties": { "gid": 6366506528, "addr:housenumber": null, "brand": null, "name": "2nd Chance Thrift Shop", "office": null, "operator": null, "ref": null, "shop": "second_hand" }, "geometry": { "type": "Point", "coordinates": [ -122.4099034, 48.24006669987984 ] } },
{ "type": "Feature", "properties": { "gid": 4423015870, "addr:housenumber": null, "brand": "Dollar Tree", "name": "Dollar Tree", "office": null, "operator": null, "ref": null, "shop": "variety_store" }, "geometry": { "type": "Point", "coordinates": [ -122.126175, 48.200661599889415 ] } },
{ "type": "Feature", "properties": { "gid": 4984330785, "addr:housenumber": null, "brand": "Dollar Tree", "name": "Dollar Tree", "office": null, "operator": null, "ref": null, "shop": "variety_store" }, "geometry": { "type": "Point", "coordinates": [ -122.1070612, 48.000502699937563 ] } },
{ "type": "Feature", "properties": { "gid": 3769846860, "addr:housenumber": "525", "brand": null, "name": "Humane Society of Skagit Valley Thrift Shop", "office": null, "operator": null, "ref": null, "shop": "variety_store" }, "geometry": { "type": "Point", "coordinates": [ -122.333084, 48.437517099831553 ] } },
{ "type": "Feature", "properties": { "gid": 9405720239, "addr:housenumber": "525", "brand": null, "name": "Big Box Outlet Store", "office": null, "operator": "Big Box Outlet Store", "ref": null, "shop": "variety_store" }, "geometry": { "type": "Point", "coordinates": [ -122.333113399999988, 48.436455299831813 ] } },
{ "type": "Feature", "properties": { "gid": 4198174476, "addr:housenumber": "242", "brand": "Goodwill", "name": "Goodwill", "office": null, "operator": null, "ref": null, "shop": "charity" }, "geometry": { "type": "Point", "coordinates": [ -122.3378513, 48.434323499832338 ] } },
{ "type": "Feature", "properties": { "gid": 3722392719, "addr:housenumber": "220", "brand": "Dollar Tree", "name": "Dollar Tree", "office": null, "operator": null, "ref": null, "shop": "variety_store" }, "geometry": { "type": "Point", "coordinates": [ -122.338522800000021, 48.434330599832343 ] } },
{ "type": "Feature", "properties": { "gid": 9188392028, "addr:housenumber": "173", "brand": "Dollar Tree", "name": "Dollar Tree", "office": null, "operator": null, "ref": null, "shop": "variety_store" }, "geometry": { "type": "Point", "coordinates": [ -122.337900100000013, 48.465676199824642 ] } },
{ "type": "Feature", "properties": { "gid": 3372389134, "addr:housenumber": null, "brand": "Dollar Tree", "name": "Dollar Tree", "office": null, "operator": null, "ref": null, "shop": "variety_store" }, "geometry": { "type": "Point", "coordinates": [ -122.3371958, 48.465870099824564 ] } },
{ "type": "Feature", "properties": { "gid": 8066204658, "addr:housenumber": "7620", "brand": null, "name": "Birch Bay Hidden Treasures", "office": null, "operator": null, "ref": null, "shop": "second_hand" }, "geometry": { "type": "Point", "coordinates": [ -122.744822699999972, 48.918213199712604 ] } },
{ "type": "Feature", "properties": { "gid": 8071994449, "addr:housenumber": null, "brand": null, "name": "Dollar Plus", "office": null, "operator": null, "ref": null, "shop": "variety_store" }, "geometry": { "type": "Point", "coordinates": [ -122.66582769999998, 48.935713099708281 ] } },
{ "type": "Feature", "properties": { "gid": 4599037389, "addr:housenumber": "1515", "brand": "The Salvation Army", "name": "The Salvation Army", "office": null, "operator": null, "ref": null, "shop": "charity" }, "geometry": { "type": "Point", "coordinates": [ -122.492497, 48.774961199748141 ] } },
{ "type": "Feature", "properties": { "gid": 5585036721, "addr:housenumber": null, "brand": null, "name": "Campus Store", "office": null, "operator": null, "ref": null, "shop": "variety_store" }, "geometry": { "type": "Point", "coordinates": [ -122.510707099999976, 48.76554239975048 ] } },
{ "type": "Feature", "properties": { "gid": 10314353993, "addr:housenumber": null, "brand": "Habitat for Humanity ReStore", "name": "Habitat for Humanity ReStore", "office": null, "operator": null, "ref": null, "shop": "charity" }, "geometry": { "type": "Point", "coordinates": [ -122.475921699999972, 48.755035199753095 ] } },
{ "type": "Feature", "properties": { "gid": 10314353994, "addr:housenumber": null, "brand": "Dollar Tree", "name": "Dollar Tree", "office": null, "operator": null, "ref": null, "shop": "variety_store" }, "geometry": { "type": "Point", "coordinates": [ -122.4759652, 48.754751099753157 ] } },
{ "type": "Feature", "properties": { "gid": 8066967905, "addr:housenumber": "674", "brand": null, "name": "Wildbird Charity Boutique", "office": null, "operator": null, "ref": null, "shop": "second_hand" }, "geometry": { "type": "Point", "coordinates": [ -122.751317300000011, 48.994303499693736 ] } },
{ "type": "Feature", "properties": { "gid": 2463430358, "addr:housenumber": "667", "brand": null, "name": "Thrift house", "office": null, "operator": null, "ref": null, "shop": "second_hand" }, "geometry": { "type": "Point", "coordinates": [ -123.0231453, 48.529972299808776 ] } },
{ "type": "Feature", "properties": { "gid": 9188437705, "addr:housenumber": "3001", "brand": "The Salvation Army", "name": "The Salvation Army", "office": null, "operator": null, "ref": null, "shop": "charity" }, "geometry": { "type": "Point", "coordinates": [ -122.608932, 48.497547399816789 ] } },
{ "type": "Feature", "properties": { "gid": 10134065345, "addr:housenumber": "665", "brand": null, "name": "Pamelas Legacy", "office": null, "operator": null, "ref": null, "shop": "second_hand" }, "geometry": { "type": "Point", "coordinates": [ -122.649714399999979, 48.28793049986821 ] } },
{ "type": "Feature", "properties": { "gid": 4539931514, "addr:housenumber": null, "brand": null, "name": "Quimper Mercantile", "office": null, "operator": null, "ref": null, "shop": "variety_store" }, "geometry": { "type": "Point", "coordinates": [ -122.7586134, 48.113113899910587 ] } },
{ "type": "Feature", "properties": { "gid": 5586258652, "addr:housenumber": null, "brand": null, "name": "WAIF Freeland", "office": null, "operator": "Whidbey Animal Improvement Fund", "ref": null, "shop": "charity" }, "geometry": { "type": "Point", "coordinates": [ -122.525738, 48.008165799935746 ] } },
{ "type": "Feature", "properties": { "gid": 5246357533, "addr:housenumber": null, "brand": "Habitat for Humanity ReStore", "name": "Habitat for Humanity ReStore", "office": null, "operator": null, "ref": null, "shop": "charity" }, "geometry": { "type": "Point", "coordinates": [ -122.529438, 48.008485099935648 ] } },
{ "type": "Feature", "properties": { "gid": 5415335619, "addr:housenumber": null, "brand": null, "name": "Vintage Flip Consign", "office": null, "operator": null, "ref": null, "shop": "second_hand" }, "geometry": { "type": "Point", "coordinates": [ -122.6313155, 47.596344700031885 ] } },
{ "type": "Feature", "properties": { "gid": 5415335620, "addr:housenumber": "3452", "brand": "Habitat for Humanity ReStore", "name": "Habitat for Humanity ReStore", "office": null, "operator": null, "ref": null, "shop": "charity" }, "geometry": { "type": "Point", "coordinates": [ -122.631306, 47.597366600031634 ] } },
{ "type": "Feature", "properties": { "gid": 3889879636, "addr:housenumber": null, "brand": "Goodwill", "name": "Goodwill", "office": null, "operator": null, "ref": null, "shop": "charity" }, "geometry": { "type": "Point", "coordinates": [ -122.6310931, 47.604834800029948 ] } },
{ "type": "Feature", "properties": { "gid": 4987007524, "addr:housenumber": null, "brand": null, "name": "Bay Variety", "office": null, "operator": null, "ref": null, "shop": "variety_store" }, "geometry": { "type": "Point", "coordinates": [ -123.4349721, 48.119775699908956 ] } },
{ "type": "Feature", "properties": { "gid": 5939576771, "addr:housenumber": null, "brand": "Goodwill", "name": "Goodwill", "office": null, "operator": null, "ref": null, "shop": "charity" }, "geometry": { "type": "Point", "coordinates": [ -123.115640099999979, 48.080838099918331 ] } },
{ "type": "Feature", "properties": { "gid": 6856563581, "addr:housenumber": null, "brand": "Dollar Tree", "name": "Dollar Tree", "office": null, "operator": null, "ref": null, "shop": "variety_store" }, "geometry": { "type": "Point", "coordinates": [ -123.0866905, 48.077999399919001 ] } },
{ "type": "Feature", "properties": { "gid": 7805730785, "addr:housenumber": null, "brand": null, "name": "Eccentric Treasures", "office": null, "operator": null, "ref": null, "shop": "variety_store" }, "geometry": { "type": "Point", "coordinates": [ -124.1044173, 46.885024000184565 ] } },
{ "type": "Feature", "properties": { "gid": 7805730489, "addr:housenumber": null, "brand": null, "name": "Dollar General", "office": null, "operator": null, "ref": null, "shop": "variety_store" }, "geometry": { "type": "Point", "coordinates": [ -124.104424199999968, 46.884818200184597 ] } },
{ "type": "Feature", "properties": { "gid": 8868738820, "addr:housenumber": "22653", "brand": null, "name": "Habitat for Humanity", "office": null, "operator": null, "ref": null, "shop": "second_hand" }, "geometry": { "type": "Point", "coordinates": [ -122.83699, 47.436943300067739 ] } },
{ "type": "Feature", "properties": { "gid": 5895169345, "addr:housenumber": null, "brand": "Value Village", "name": "Value Village", "office": null, "operator": null, "ref": null, "shop": "second_hand" }, "geometry": { "type": "Point", "coordinates": [ -122.5279085, 47.241862400110413 ] } },
{ "type": "Feature", "properties": { "gid": 5144120021, "addr:housenumber": "8111", "brand": "Dollar Tree", "name": "Dollar Tree", "office": null, "operator": null, "ref": null, "shop": "variety_store" }, "geometry": { "type": "Point", "coordinates": [ -122.545597799999982, 47.180631700123506 ] } },
{ "type": "Feature", "properties": { "gid": 335903059, "addr:housenumber": "8025", "brand": "Value Village", "name": "Goodwill", "office": null, "operator": null, "ref": null, "shop": "second_hand" }, "geometry": { "type": "Point", "coordinates": [ -122.462143499999982, 47.183711000122855 ] } },
{ "type": "Feature", "properties": { "gid": 5738119930, "addr:housenumber": null, "brand": "Goodwill", "name": "Goodwill", "office": null, "operator": null, "ref": null, "shop": "charity" }, "geometry": { "type": "Point", "coordinates": [ -122.51678, 47.169296300125907 ] } },
{ "type": "Feature", "properties": { "gid": 4191041304, "addr:housenumber": "1321", "brand": "Dollar Tree", "name": "Dollar Tree", "office": null, "operator": null, "ref": null, "shop": "variety_store" }, "geometry": { "type": "Point", "coordinates": [ -122.766444699999965, 47.058703600149116 ] } },
{ "type": "Feature", "properties": { "gid": 2346479504, "addr:housenumber": null, "brand": "Value Village", "name": "Value Village", "office": null, "operator": null, "ref": null, "shop": "second_hand" }, "geometry": { "type": "Point", "coordinates": [ -122.831708, 47.042441100152502 ] } },
{ "type": "Feature", "properties": { "gid": 2422237291, "addr:housenumber": null, "brand": "Dollar Tree", "name": "Dollar Tree", "office": null, "operator": null, "ref": null, "shop": "variety_store" }, "geometry": { "type": "Point", "coordinates": [ -122.9275793, 47.046853500151578 ] } },
{ "type": "Feature", "properties": { "gid": 5353497586, "addr:housenumber": null, "brand": null, "name": "Commerce Corner Collectables", "office": null, "operator": null, "ref": null, "shop": "second_hand" }, "geometry": { "type": "Point", "coordinates": [ -122.9340673, 46.138601900320467 ] } },
{ "type": "Feature", "properties": { "gid": 5353497590, "addr:housenumber": null, "brand": null, "name": "Vintage Alley", "office": null, "operator": null, "ref": null, "shop": "second_hand" }, "geometry": { "type": "Point", "coordinates": [ -122.9343658, 46.138657200320466 ] } },
{ "type": "Feature", "properties": { "gid": 5906769140, "addr:housenumber": null, "brand": null, "name": "Thrift Shop", "office": null, "operator": null, "ref": null, "shop": "second_hand" }, "geometry": { "type": "Point", "coordinates": [ -122.934727, 46.135716900320944 ] } },
{ "type": "Feature", "properties": { "gid": 5906769149, "addr:housenumber": null, "brand": null, "name": "Kids Resale", "office": null, "operator": null, "ref": null, "shop": "second_hand" }, "geometry": { "type": "Point", "coordinates": [ -122.937185, 46.132348200321495 ] } },
{ "type": "Feature", "properties": { "gid": 5080284962, "addr:housenumber": null, "brand": null, "name": "Pawn Shop", "office": null, "operator": null, "ref": null, "shop": "second_hand" }, "geometry": { "type": "Point", "coordinates": [ -122.9383989, 46.133123800321371 ] } },
{ "type": "Feature", "properties": { "gid": 5080284961, "addr:housenumber": null, "brand": "Goodwill", "name": "Goodwill", "office": null, "operator": null, "ref": null, "shop": "charity" }, "geometry": { "type": "Point", "coordinates": [ -122.938545799999986, 46.132731600321414 ] } },
{ "type": "Feature", "properties": { "gid": 9307565489, "addr:housenumber": null, "brand": "Dollar Tree", "name": "Dollar Tree", "office": null, "operator": null, "ref": null, "shop": "variety_store" }, "geometry": { "type": "Point", "coordinates": [ -122.894263, 46.143030000319762 ] } },
{ "type": "Feature", "properties": { "gid": 9119315946, "addr:housenumber": null, "brand": null, "name": "Haute Madre", "office": null, "operator": null, "ref": null, "shop": "second_hand" }, "geometry": { "type": "Point", "coordinates": [ -122.531176499999972, 45.781052200375079 ] } },
{ "type": "Feature", "properties": { "gid": 4037562527, "addr:housenumber": null, "brand": null, "name": "Rusty Glamore", "office": null, "operator": null, "ref": null, "shop": "second_hand" }, "geometry": { "type": "Point", "coordinates": [ -122.532796399999967, 45.780644800375143 ] } },
{ "type": "Feature", "properties": { "gid": 4103616666, "addr:housenumber": null, "brand": null, "name": "Denim & Frills", "office": null, "operator": null, "ref": null, "shop": "second_hand" }, "geometry": { "type": "Point", "coordinates": [ -122.6536789, 45.697211100386845 ] } },
{ "type": "Feature", "properties": { "gid": 4103616671, "addr:housenumber": null, "brand": null, "name": "Chic Boutique", "office": null, "operator": null, "ref": null, "shop": "second_hand" }, "geometry": { "type": "Point", "coordinates": [ -122.6536205, 45.697314300386815 ] } },
{ "type": "Feature", "properties": { "gid": 4264831740, "addr:housenumber": null, "brand": null, "name": "Re Runz", "office": null, "operator": null, "ref": null, "shop": "second_hand" }, "geometry": { "type": "Point", "coordinates": [ -122.642770200000015, 45.637914100394894 ] } },
{ "type": "Feature", "properties": { "gid": 5610124696, "addr:housenumber": "108", "brand": null, "name": "Vintage Vignette", "office": null, "operator": null, "ref": null, "shop": "second_hand" }, "geometry": { "type": "Point", "coordinates": [ -122.6721978, 45.625838400396525 ] } },
{ "type": "Feature", "properties": { "gid": 5610124693, "addr:housenumber": "604", "brand": null, "name": "Main Street Loan", "office": null, "operator": null, "ref": null, "shop": "second_hand" }, "geometry": { "type": "Point", "coordinates": [ -122.671903599999951, 45.625926400396487 ] } },
{ "type": "Feature", "properties": { "gid": 4201135115, "addr:housenumber": null, "brand": null, "name": "Urban Float", "office": null, "operator": null, "ref": null, "shop": "second_hand" }, "geometry": { "type": "Point", "coordinates": [ -122.643774100000016, 45.619812300397321 ] } },
{ "type": "Feature", "properties": { "gid": 992331369, "addr:housenumber": "305", "brand": "Dollar Tree", "name": "Dollar Tree", "office": null, "operator": null, "ref": "2508", "shop": "variety_store" }, "geometry": { "type": "Point", "coordinates": [ -122.552781200000013, 45.619704700397328 ] } }
]
}
